     2.10           N: GPS NAV DATA                         RINEX VERSION / TYPE
teqc  2005Sep1                          20060102 00:16:12UTCPGM / RUN BY / DATE
Linux 2.4.20-8|Pentium IV|gcc|Linux|486/DX+                 COMMENT
teqc  2005Sep1                          20060101 01:04:05UTCCOMMENT
                                                            END OF HEADER
 1 06  1  1  7 59 28.0 2.814177423716D-05 2.387423592154D-12 0.000000000000D+00
    1.360000000000D+02-2.968750000000D+01 4.250177036933D-09-2.931590069888D+00
   -1.529231667519D-06 6.314591388218D-03-6.575137376785D-07 5.153680294037D+03
    2.876800000000D+04 2.067536115646D-07-1.212989220818D+00 2.048909664154D-08
    9.861436355607D-01 4.040625000000D+02-1.721552750039D+00-8.218199463852D-09
   -2.071514858337D-11 1.000000000000D+00 1.356000000000D+03 0.000000000000D+00
    2.000000000000D+00 0.000000000000D+00-3.259629011154D-09 1.360000000000D+02
    2.503800000000D+04 4.000000000000D+00
20 06  1  1  8  0  0.0-3.648735582829D-05 1.023181539495D-12 0.000000000000D+00
    1.660000000000D+02 1.634375000000D+02 4.422684222550D-09 1.583003611597D-01
    8.270144462585D-06 2.525526215322D-03 6.165355443954D-06 5.153577728271D+03
    2.880000000000D+04-1.676380634308D-08-2.305478439745D+00 2.793967723846D-08
    9.592824583534D-01 2.616250000000D+02 1.353408877038D+00-8.108194881720D-09
    2.392956819114D-10 1.000000000000D+00 1.356000000000D+03 0.000000000000D+00
    2.000000000000D+00 0.000000000000D+00-6.519258022308D-09 1.660000000000D+02
    2.677800000000D+04 4.000000000000D+00
30 06  1  1  7 59 44.0 9.236857295036D-06 5.798028723802D-12 0.000000000000D+00
    1.120000000000D+02-2.565625000000D+01 4.895561062626D-09-1.800066100436D-01
   -1.266598701477D-06 8.712487760931D-03 1.012720167637D-05 5.153606317520D+03
    2.878400000000D+04-4.284083843231D-08 8.100311188761D-01 8.754432201385D-08
    9.440147255225D-01 1.754062500000D+02 1.296273078314D+00-8.130695818974D-09
    5.743096365873D-10 1.000000000000D+00 1.356000000000D+03 0.000000000000D+00
    2.000000000000D+00 0.000000000000D+00-8.381903171539D-09 1.120000000000D+02
    2.857800000000D+04 4.000000000000D+00
 1 06  1  1  9 59 28.0 2.815900370479D-05 2.387423592154D-12 0.000000000000D+00
    1.370000000000D+02-1.296875000000D+01 4.268392081377D-09-1.881686846827D+00
   -5.103647708893D-07 6.316250306554D-03-9.424984455109D-07 5.153675815582D+03
    3.596800000000D+04 1.061707735062D-07-1.213048572868D+00 1.285225152969D-07
    9.861439252185D-01 4.085000000000D+02-1.721279684676D+00-8.202484523547D-09
    5.035924052165D-11 1.000000000000D+00 1.356000000000D+03 0.000000000000D+00
    2.000000000000D+00 0.000000000000D+00-3.259629011154D-09 1.370000000000D+02
    2.881800000000D+04 4.000000000000D+00
 5 06  1  1 10  0  0.0 4.486949183047D-04 2.432898327243D-11 0.000000000000D+00
    5.400000000000D+01-3.646875000000D+01 4.893775273955D-09 1.597456395191D+00
   -1.948326826096D-06 6.784588797018D-03 1.096539199352D-05 5.153686752319D+03
    3.600000000000D+04-1.825392246246D-07 7.645031801232D-01 3.725290298462D-09
    9.374004062153D-01 1.561250000000D+02 1.039615474032D+00-8.018548290436D-09
    6.300262431219D-10 1.000000000000D+00 1.356000000000D+03 0.000000000000D+00
    2.000000000000D+00 0.000000000000D+00-4.190951585770D-09 3.100000000000D+02
    2.881800000000D+04 4.000000000000D+00
14 06  1  1 10  0  0.0-2.163602039218D-05 5.684341886081D-13 0.000000000000D+00
    1.770000000000D+02-7.312500000000D+00 4.396611707954D-09-9.930484114009D-01
   -2.849847078323D-07 2.382762613706D-03-7.804483175278D-07 5.153598081589D+03
    3.600000000000D+04-5.960464477539D-08-1.240355736744D+00 1.192092895508D-07
    9.845479986275D-01 4.077500000000D+02-2.002151513396D+00-8.365705608075D-09
    2.500104139373D-11 1.000000000000D+00 1.356000000000D+03 0.000000000000D+00
    2.800000000000D+00 0.000000000000D+00-9.313225746155D-09 4.330000000000D+02
    2.881800000000D+04 4.000000000000D+00
20 06  1  1 10  0  0.0-3.647943958640D-05 1.023181539495D-12 0.000000000000D+00
    1.670000000000D+02 1.519687500000D+02 4.250177036933D-09 1.208014184605D+00
    7.929280400276D-06 2.527653705329D-03 6.664544343948D-06 5.153582426071D+03
    3.600000000000D+04-5.960464477539D-08-2.305536918433D+00-5.587935447693D-09
    9.592842943156D-01 2.472500000000D+02 1.353931538169D+00-8.081408051655D-09
    2.625109346341D-10 1.000000000000D+00 1.356000000000D+03 0.000000000000D+00
    2.000000000000D+00 0.000000000000D+00-6.519258022308D-09 1.670000000000D+02
    2.881800000000D+04 4.000000000000D+00
22 06  1  1 10  0  0.0 5.928566679358D-05 2.046363078989D-12 0.000000000000D+00
    2.310000000000D+02 1.669375000000D+02 4.425898642158D-09-3.202783535419D-01
    8.616596460342D-06 4.996555042453D-03 7.033348083496D-06 5.153692256927D+03
    3.600000000000D+04-8.381903171539D-08-2.244308907743D+00 2.793967723846D-08
    9.571141445830D-01 2.435000000000D+02-1.562708464234D+00-8.182840848166D-09
    3.135844906242D-10 1.000000000000D+00 1.356000000000D+03 0.000000000000D+00
    2.000000000000D+00 0.000000000000D+00-1.816079020500D-08 4.870000000000D+02
    2.881800000000D+04 4.000000000000D+00
25 06  1  1 10  0  0.0-8.288165554404D-05-1.283524397877D-10 2.775557561563D-17
    6.000000000000D+00-1.694062500000D+02 4.568761735836D-09-2.967298911270D+00
   -8.549541234970D-06 1.237956481054D-02 6.241723895073D-06 5.153676445007D+03
    3.600000000000D+04 2.011656761169D-07-2.933338704645D-01 1.043081283569D-07
    9.523535604570D-01 2.522187500000D+02-1.408841815711D+00-7.918186967127D-09
   -1.278624688422D-10 1.000000000000D+00 1.356000000000D+03 0.000000000000D+00
    2.000000000000D+00 6.300000000000D+01-7.450580596924D-09 6.000000000000D+00
    2.881800000000D+04 4.000000000000D+00
30 06  1  1  9 59 44.0 9.278766810894D-06 5.798028723802D-12 0.000000000000D+00
    1.130000000000D+02-3.215625000000D+01 4.855916554130D-09 8.701186400939D-01
   -1.613050699234D-06 8.713903371245D-03 1.076795160770D-05 5.153609416962D+03
    3.598400000000D+04-1.266598701477D-07 8.099724909711D-01 9.126961231232D-08
    9.440188831357D-01 1.647500000000D+02 1.296372073980D+00-8.104623304378D-09
    6.003821511836D-10 1.000000000000D+00 1.356000000000D+03 0.000000000000D+00
    2.000000000000D+00 0.000000000000D+00-8.381903171539D-09 1.130000000000D+02
    2.881800000000D+04 4.000000000000D+00
16 06  1  1  9 59 44.0 2.002110704780D-05 1.477928890381D-12 0.000000000000D+00
    6.100000000000D+01-2.237500000000D+01 4.417684014271D-09 1.509725945528D+00
   -1.182779669762D-06 2.991947578266D-03 1.003406941891D-05 5.153631752014D+03
    3.598400000000D+04 8.568167686462D-08 8.518228979800D-01-5.029141902924D-08
    9.618278875351D-01 1.821562500000D+02-9.508435846919D-01-7.742465361903D-09
    5.278791311418D-10 1.000000000000D+00 1.356000000000D+03 0.000000000000D+00
    2.000000000000D+00 0.000000000000D+00-9.778887033463D-09 6.100000000000D+01
    2.929800000000D+04 4.000000000000D+00
 6 06  1  1 10  0  0.0 1.724753528833D-04 4.445155354915D-11 0.000000000000D+00
    1.900000000000D+01-1.250000000000D+00 5.575946546269D-09 2.876973323933D+00
   -1.378357410431D-07 5.969510762952D-03 4.820525646210D-06 5.153618249893D+03
    3.600000000000D+04 5.587935447693D-08 1.861457637571D+00-3.166496753693D-08
    9.334758870862D-01 2.695625000000D+02-1.861265446708D+00-8.290345326160D-09
   -7.857470152314D-11 1.000000000000D+00 1.356000000000D+03 0.000000000000D+00
    2.000000000000D+00 0.000000000000D+00-4.656612873077D-09 1.900000000000D+01
    3.028800000000D+04 4.000000000000D+00
23 06  1  1 10  0  0.0 1.564882695675D-04-1.705302565824D-12 0.000000000000D+00
    2.150000000000D+02-1.478125000000D+01 4.689838207729D-09-9.572613302339D-01
   -9.853392839432D-07 4.180780379102D-03-6.146728992462D-07 5.153609115601D+03
    3.600000000000D+04 4.470348358154D-08-1.251378309524D+00-4.656612873077D-08
    9.667770652082D-01 3.953750000000D+02 2.423872174611D+00-8.575357198048D-09
    6.857428496565D-11 1.000000000000D+00 1.356000000000D+03 0.000000000000D+00
    2.000000000000D+00 0.000000000000D+00-2.142041921616D-08 4.710000000000D+02
    3.181800000000D+04 4.000000000000D+00
 1 06  1  1 12  0  0.0 2.817576751113D-05 2.387423592154D-12 0.000000000000D+00
    1.380000000000D+02-8.968750000000D+00 4.337680681811D-09-8.268314500373D-01
   -3.613531589508D-07 6.316528655589D-03-6.929039955139D-07 5.153676027298D+03
    4.320000000000D+04-1.490116119385D-07-1.213108918239D+00 9.126961231232D-08
    9.861431279281D-01 4.090625000000D+02-1.721289230217D+00-8.459638092168D-09
    6.178828801592D-11 1.000000000000D+00 1.356000000000D+03 0.000000000000D+00
    2.000000000000D+00 0.000000000000D+00-3.259629011154D-09 1.380000000000D+02
    3.601800000000D+04 4.000000000000D+00
 6 06  1  1 12  0  0.0 1.727952621877D-04 4.445155354915D-11 0.000000000000D+00
    2.000000000000D+01-8.750000000000D-01 5.576660861738D-09-2.355992325154D+00
   -1.005828380585D-07 5.969480844215D-03 4.822388291359D-06 5.153618297577D+03
    4.320000000000D+04 7.078051567078D-08 1.861397877367D+00-1.490116119385D-08
    9.334753721390D-01 2.694062500000D+02-1.861262686182D+00-8.294274061236D-09
   -6.750281176306D-11 1.000000000000D+00 1.356000000000D+03 0.000000000000D+00
    2.000000000000D+00 0.000000000000D+00-4.656612873077D-09 2.000000000000D+01
    3.601800000000D+04 4.000000000000D+00
